FENGYUN 1C DEB          
1 36270U 99025DWX 17345.10139578  .00001130  00000-0  60507-3 0  9993
2 36270  99.0614  26.0063 0076060 158.1451 202.2994 14.13700456506842
